LEGION 1                
1 59625U 24081A   26195.14359102  .00001998  00000+0  10498-3 0  9991
2 59625  97.5014 272.7145 0007699 273.8429  86.1923 15.16840253121625
LEGION 2                
1 59626U 24081B   26195.17396230  .00002041  00000+0  10719-3 0  9994
2 59626  97.5015 272.8415 0010140 237.2830 122.7426 15.16818708121639
LEGION 3                
1 60452U 24146A   26195.21608352  .00001745  00000+0  10384-3 0  9999
2 60452  45.0020 245.6367 0008291 328.7619  31.2766 15.15652443106120
LEGION 4                
1 60453U 24146B   26194.88630610  .00002266  00000+0  13065-3 0  9992
2 60453  45.0030 339.2713 0008928 105.5212 254.6653 15.15675992104920
LEGION 5                
1 62900U 25025A   26195.01835744  .00002018  00000+0  11658-3 0  9990
2 62900  45.0000 157.5252 0008356 296.7714  63.2309 15.16069565 78566
LEGION 6                
1 62901U 25025B   26195.08321392  .00001552  00000+0  93795-4 0  9992
2 62901  45.0015  66.3228 0010826 270.8867  89.0771 15.15683858 79713
