{"fetched_at":"2026-07-14T17:40:55.083Z","source":"https://celestrak.org/NORAD/elements/gp.php?NAME=LEGION&FORMAT=JSON","constellation":"maxar-legion","records":[{"OBJECT_NAME":"LEGION 1","OBJECT_ID":"2024-081A","EPOCH":"2026-07-14T03:26:46.264128","CLASSIFICATION_TYPE":"U","MEAN_MOTION":15.16840253,"ECCENTRICITY":0.0007699,"INCLINATION":97.5014,"RA_OF_ASC_NODE":272.7145,"ARG_OF_PERICENTER":273.8429,"MEAN_ANOMALY":86.1923,"EPHEMERIS_TYPE":0,"NORAD_CAT_ID":59625,"ELEMENT_SET_NO":999,"REV_AT_EPOCH":12162,"BSTAR":0.00010498,"MEAN_MOTION_DOT":0.00001998,"MEAN_MOTION_DDOT":0},{"OBJECT_NAME":"LEGION 2","OBJECT_ID":"2024-081B","EPOCH":"2026-07-14T04:10:30.342720","CLASSIFICATION_TYPE":"U","MEAN_MOTION":15.16818708,"ECCENTRICITY":0.001014,"INCLINATION":97.5015,"RA_OF_ASC_NODE":272.8415,"ARG_OF_PERICENTER":237.283,"MEAN_ANOMALY":122.7426,"EPHEMERIS_TYPE":0,"NORAD_CAT_ID":59626,"ELEMENT_SET_NO":999,"REV_AT_EPOCH":12163,"BSTAR":0.00010719,"MEAN_MOTION_DOT":0.00002041,"MEAN_MOTION_DDOT":0},{"OBJECT_NAME":"LEGION 3","OBJECT_ID":"2024-146A","EPOCH":"2026-07-14T05:11:09.616128","CLASSIFICATION_TYPE":"U","MEAN_MOTION":15.15652443,"ECCENTRICITY":0.0008291,"INCLINATION":45.002,"RA_OF_ASC_NODE":245.6367,"ARG_OF_PERICENTER":328.7619,"MEAN_ANOMALY":31.2766,"EPHEMERIS_TYPE":0,"NORAD_CAT_ID":60452,"ELEMENT_SET_NO":999,"REV_AT_EPOCH":10612,"BSTAR":0.00010384,"MEAN_MOTION_DOT":0.00001745,"MEAN_MOTION_DDOT":0},{"OBJECT_NAME":"LEGION 4","OBJECT_ID":"2024-146B","EPOCH":"2026-07-13T21:16:16.847040","CLASSIFICATION_TYPE":"U","MEAN_MOTION":15.15675992,"ECCENTRICITY":0.0008928,"INCLINATION":45.003,"RA_OF_ASC_NODE":339.2713,"ARG_OF_PERICENTER":105.5212,"MEAN_ANOMALY":254.6653,"EPHEMERIS_TYPE":0,"NORAD_CAT_ID":60453,"ELEMENT_SET_NO":999,"REV_AT_EPOCH":10492,"BSTAR":0.00013065,"MEAN_MOTION_DOT":0.00002266,"MEAN_MOTION_DDOT":0},{"OBJECT_NAME":"LEGION 5","OBJECT_ID":"2025-025A","EPOCH":"2026-07-14T00:26:26.082816","CLASSIFICATION_TYPE":"U","MEAN_MOTION":15.16069565,"ECCENTRICITY":0.0008356,"INCLINATION":45,"RA_OF_ASC_NODE":157.5252,"ARG_OF_PERICENTER":296.7714,"MEAN_ANOMALY":63.2309,"EPHEMERIS_TYPE":0,"NORAD_CAT_ID":62900,"ELEMENT_SET_NO":999,"REV_AT_EPOCH":7856,"BSTAR":0.00011658,"MEAN_MOTION_DOT":0.00002018,"MEAN_MOTION_DDOT":0},{"OBJECT_NAME":"LEGION 6","OBJECT_ID":"2025-025B","EPOCH":"2026-07-14T01:59:49.682688","CLASSIFICATION_TYPE":"U","MEAN_MOTION":15.15683858,"ECCENTRICITY":0.0010826,"INCLINATION":45.0015,"RA_OF_ASC_NODE":66.3228,"ARG_OF_PERICENTER":270.8867,"MEAN_ANOMALY":89.0771,"EPHEMERIS_TYPE":0,"NORAD_CAT_ID":62901,"ELEMENT_SET_NO":999,"REV_AT_EPOCH":7971,"BSTAR":0.000093795,"MEAN_MOTION_DOT":0.00001552,"MEAN_MOTION_DDOT":0}]}
